GOES 18                 
1 51850U 22021A   26064.27084398  .00000088  00000+0  00000+0 0  9999
2 51850   0.0324  75.9838 0000707 326.9206  80.5919  1.00272473  5555
GOES 19                 
1 60133U 24119A   26064.28306403 -.00000257  00000+0  00000+0 0  9997
2 60133   0.0131 338.9704 0001059  46.7096 164.0397  1.00271818  5925
