[{"OBJECT_NAME":"GOES 18","OBJECT_ID":"2022-021A","EPOCH":"2026-03-05T06:30:00.919872","MEAN_MOTION":1.00272473,"ECCENTRICITY":7.073e-5,"INCLINATION":0.0324,"RA_OF_ASC_NODE":75.9838,"ARG_OF_PERICENTER":326.9206,"MEAN_ANOMALY":80.5919,"EPHEMERIS_TYPE":0,"CLASSIFICATION_TYPE":"U","NORAD_CAT_ID":51850,"ELEMENT_SET_NO":999,"REV_AT_EPOCH":555,"BSTAR":0,"MEAN_MOTION_DOT":8.8e-7,"MEAN_MOTION_DDOT":0},{"OBJECT_NAME":"GOES 19","OBJECT_ID":"2024-119A","EPOCH":"2026-03-05T06:47:36.732192","MEAN_MOTION":1.00271818,"ECCENTRICITY":0.00010599,"INCLINATION":0.0131,"RA_OF_ASC_NODE":338.9704,"ARG_OF_PERICENTER":46.7096,"MEAN_ANOMALY":164.0397,"EPHEMERIS_TYPE":0,"CLASSIFICATION_TYPE":"U","NORAD_CAT_ID":60133,"ELEMENT_SET_NO":999,"REV_AT_EPOCH":592,"BSTAR":0,"MEAN_MOTION_DOT":-2.57e-6,"MEAN_MOTION_DDOT":0}]
